[{"OBJECT_NAME":"IRIDIUM 142","OBJECT_ID":"2018-030H","EPOCH":"2026-03-09T19:54:27.398592","MEAN_MOTION":14.34217645,"ECCENTRICITY":0.000204,"INCLINATION":86.4006,"RA_OF_ASC_NODE":331.9079,"ARG_OF_PERICENTER":94.7375,"MEAN_ANOMALY":265.4053,"EPHEMERIS_TYPE":0,"CLASSIFICATION_TYPE":"U","NORAD_CAT_ID":43256,"ELEMENT_SET_NO":999,"REV_AT_EPOCH":41589,"BSTAR":-2.157633e-6,"MEAN_MOTION_DOT":1.4e-7,"MEAN_MOTION_DDOT":0},{"OBJECT_NAME":"COSMOS 1048","OBJECT_ID":"1978-105A","EPOCH":"2026-03-09T15:50:11.230080","MEAN_MOTION":14.35224026,"ECCENTRICITY":0.00174853,"INCLINATION":74.0278,"RA_OF_ASC_NODE":157.6322,"ARG_OF_PERICENTER":294.1478,"MEAN_ANOMALY":65.7845,"EPHEMERIS_TYPE":0,"CLASSIFICATION_TYPE":"U","NORAD_CAT_ID":11111,"ELEMENT_SET_NO":999,"REV_AT_EPOCH":47381,"BSTAR":7.6773562e-5,"MEAN_MOTION_DOT":1.94e-6,"MEAN_MOTION_DDOT":0}]
